[{"OBJECT_NAME":"LEMUR-2-ARIANNA","OBJECT_ID":"2025-009CU","EPOCH":"2026-03-02T19:21:54.821664","MEAN_MOTION":15.00727041,"ECCENTRICITY":0.00043591,"INCLINATION":97.7031,"RA_OF_ASC_NODE":144.1734,"ARG_OF_PERICENTER":159.9777,"MEAN_ANOMALY":200.1619,"EPHEMERIS_TYPE":0,"CLASSIFICATION_TYPE":"U","NORAD_CAT_ID":62699,"ELEMENT_SET_NO":999,"REV_AT_EPOCH":6159,"BSTAR":0.00074348943,"MEAN_MOTION_DOT":9.372e-5,"MEAN_MOTION_DDOT":0},{"OBJECT_NAME":"LEMUR-2-ALISIA","OBJECT_ID":"2025-009DB","EPOCH":"2026-03-02T17:43:11.109792","MEAN_MOTION":15.00991747,"ECCENTRICITY":0.0006256,"INCLINATION":97.7075,"RA_OF_ASC_NODE":144.7546,"ARG_OF_PERICENTER":174.9664,"MEAN_ANOMALY":185.1624,"EPHEMERIS_TYPE":0,"CLASSIFICATION_TYPE":"U","NORAD_CAT_ID":62706,"ELEMENT_SET_NO":999,"REV_AT_EPOCH":8418,"BSTAR":0.00076519864,"MEAN_MOTION_DOT":9.717e-5,"MEAN_MOTION_DDOT":0},{"OBJECT_NAME":"LEMUR-2-ROUNDTRIPPER","OBJECT_ID":"2025-009DG","EPOCH":"2026-03-02T18:23:31.623072","MEAN_MOTION":15.01906856,"ECCENTRICITY":0.00045723,"INCLINATION":97.731,"RA_OF_ASC_NODE":144.7342,"ARG_OF_PERICENTER":145.0716,"MEAN_ANOMALY":215.0809,"EPHEMERIS_TYPE":0,"CLASSIFICATION_TYPE":"U","NORAD_CAT_ID":62711,"ELEMENT_SET_NO":999,"REV_AT_EPOCH":6164,"BSTAR":0.00082225575,"MEAN_MOTION_DOT":0.000107,"MEAN_MOTION_DDOT":0},{"OBJECT_NAME":"LEMUR-2-MYNAMEISJEFF","OBJECT_ID":"2025-009DH","EPOCH":"2026-03-02T18:21:23.369184","MEAN_MOTION":15.01894881,"ECCENTRICITY":0.00036914,"INCLINATION":97.736,"RA_OF_ASC_NODE":145.0505,"ARG_OF_PERICENTER":173.5484,"MEAN_ANOMALY":186.5789,"EPHEMERIS_TYPE":0,"CLASSIFICATION_TYPE":"U","NORAD_CAT_ID":62712,"ELEMENT_SET_NO":999,"REV_AT_EPOCH":6164,"BSTAR":0.00081421646,"MEAN_MOTION_DOT":0.00010591,"MEAN_MOTION_DDOT":0},{"OBJECT_NAME":"LEMUR-2-LEIA-PHILIP","OBJECT_ID":"2025-052AN","EPOCH":"2026-03-02T22:17:55.272480","MEAN_MOTION":14.96530618,"ECCENTRICITY":0.00025594,"INCLINATION":97.6978,"RA_OF_ASC_NODE":315.6358,"ARG_OF_PERICENTER":196.8612,"MEAN_ANOMALY":163.2525,"EPHEMERIS_TYPE":0,"CLASSIFICATION_TYPE":"U","NORAD_CAT_ID":63246,"ELEMENT_SET_NO":999,"REV_AT_EPOCH":5277,"BSTAR":0.00065707305,"MEAN_MOTION_DOT":7.418e-5,"MEAN_MOTION_DDOT":0},{"OBJECT_NAME":"LEMUR-2-LIA-MARTIN","OBJECT_ID":"2025-052AQ","EPOCH":"2026-03-02T16:24:44.785152","MEAN_MOTION":14.96697324,"ECCENTRICITY":0.0002899,"INCLINATION":97.7024,"RA_OF_ASC_NODE":315.7505,"ARG_OF_PERICENTER":161.1851,"MEAN_ANOMALY":198.9478,"EPHEMERIS_TYPE":0,"CLASSIFICATION_TYPE":"U","NORAD_CAT_ID":63248,"ELEMENT_SET_NO":999,"REV_AT_EPOCH":5274,"BSTAR":0.00056162969,"MEAN_MOTION_DOT":6.358e-5,"MEAN_MOTION_DDOT":0},{"OBJECT_NAME":"LEMUR-2-DELOITTE-1","OBJECT_ID":"2025-052BB","EPOCH":"2026-03-02T15:39:45.028800","MEAN_MOTION":14.96700379,"ECCENTRICITY":0.00032194,"INCLINATION":97.7056,"RA_OF_ASC_NODE":316.0309,"ARG_OF_PERICENTER":93.0622,"MEAN_ANOMALY":267.0968,"EPHEMERIS_TYPE":0,"CLASSIFICATION_TYPE":"U","NORAD_CAT_ID":63259,"ELEMENT_SET_NO":999,"REV_AT_EPOCH":5275,"BSTAR":0.00057390207,"MEAN_MOTION_DOT":6.499e-5,"MEAN_MOTION_DDOT":0},{"OBJECT_NAME":"LEMUR-2-EMERSONROSE","OBJECT_ID":"2025-052BD","EPOCH":"2026-03-02T22:23:03.976224","MEAN_MOTION":14.98125988,"ECCENTRICITY":0.00034174,"INCLINATION":97.7048,"RA_OF_ASC_NODE":316.6527,"ARG_OF_PERICENTER":66.2901,"MEAN_ANOMALY":293.868,"EPHEMERIS_TYPE":0,"CLASSIFICATION_TYPE":"U","NORAD_CAT_ID":63261,"ELEMENT_SET_NO":999,"REV_AT_EPOCH":5282,"BSTAR":0.00059499839,"MEAN_MOTION_DOT":6.994e-5,"MEAN_MOTION_DDOT":0},{"OBJECT_NAME":"LEMUR-2-MARACHE-FRAN","OBJECT_ID":"2025-052BE","EPOCH":"2026-03-02T16:46:37.479360","MEAN_MOTION":14.98767634,"ECCENTRICITY":0.0002401,"INCLINATION":97.7008,"RA_OF_ASC_NODE":316.6107,"ARG_OF_PERICENTER":41.8962,"MEAN_ANOMALY":318.2444,"EPHEMERIS_TYPE":0,"CLASSIFICATION_TYPE":"U","NORAD_CAT_ID":63262,"ELEMENT_SET_NO":999,"REV_AT_EPOCH":5280,"BSTAR":0.00065140741,"MEAN_MOTION_DOT":7.792e-5,"MEAN_MOTION_DDOT":0},{"OBJECT_NAME":"LEMUR-2-THEFALCONER","OBJECT_ID":"2025-052BG","EPOCH":"2026-03-02T15:54:53.774496","MEAN_MOTION":14.96412267,"ECCENTRICITY":0.0002943,"INCLINATION":97.7005,"RA_OF_ASC_NODE":315.7768,"ARG_OF_PERICENTER":38.9181,"MEAN_ANOMALY":321.2252,"EPHEMERIS_TYPE":0,"CLASSIFICATION_TYPE":"U","NORAD_CAT_ID":63264,"ELEMENT_SET_NO":999,"REV_AT_EPOCH":5275,"BSTAR":0.00048954,"MEAN_MOTION_DOT":5.494e-5,"MEAN_MOTION_DDOT":0},{"OBJECT_NAME":"LEMUR-2-UNTITLED-SC","OBJECT_ID":"2025-061A","EPOCH":"2026-03-02T21:07:21.914400","MEAN_MOTION":15.12605287,"ECCENTRICITY":0.00172845,"INCLINATION":97.5542,"RA_OF_ASC_NODE":38.1436,"ARG_OF_PERICENTER":272.3566,"MEAN_ANOMALY":87.5686,"EPHEMERIS_TYPE":0,"CLASSIFICATION_TYPE":"U","NORAD_CAT_ID":63351,"ELEMENT_SET_NO":999,"REV_AT_EPOCH":5151,"BSTAR":0.00037835232,"MEAN_MOTION_DOT":6.564e-5,"MEAN_MOTION_DDOT":0},{"OBJECT_NAME":"LEMUR-2-ESPERANZA","OBJECT_ID":"2025-061B","EPOCH":"2026-03-02T22:18:19.787616","MEAN_MOTION":15.12684435,"ECCENTRICITY":0.00167391,"INCLINATION":97.555,"RA_OF_ASC_NODE":38.2622,"ARG_OF_PERICENTER":271.5504,"MEAN_ANOMALY":88.381,"EPHEMERIS_TYPE":0,"CLASSIFICATION_TYPE":"U","NORAD_CAT_ID":63352,"ELEMENT_SET_NO":999,"REV_AT_EPOCH":5152,"BSTAR":0.00033014326,"MEAN_MOTION_DOT":5.73e-5,"MEAN_MOTION_DDOT":0},{"OBJECT_NAME":"LEMUR-2-KREMPEL-BRO2","OBJECT_ID":"2025-061C","EPOCH":"2026-03-02T22:05:02.573952","MEAN_MOTION":15.130874,"ECCENTRICITY":0.00176247,"INCLINATION":97.5597,"RA_OF_ASC_NODE":38.6514,"ARG_OF_PERICENTER":263.4858,"MEAN_ANOMALY":96.4366,"EPHEMERIS_TYPE":0,"CLASSIFICATION_TYPE":"U","NORAD_CAT_ID":63353,"ELEMENT_SET_NO":999,"REV_AT_EPOCH":5153,"BSTAR":0.0003179555,"MEAN_MOTION_DOT":5.581e-5,"MEAN_MOTION_DDOT":0},{"OBJECT_NAME":"LEMUR-2-THERMORAPTOR","OBJECT_ID":"2025-061D","EPOCH":"2026-03-02T21:46:16.786272","MEAN_MOTION":15.13163338,"ECCENTRICITY":0.00173981,"INCLINATION":97.5601,"RA_OF_ASC_NODE":38.6953,"ARG_OF_PERICENTER":262.3445,"MEAN_ANOMALY":97.581,"EPHEMERIS_TYPE":0,"CLASSIFICATION_TYPE":"U","NORAD_CAT_ID":63354,"ELEMENT_SET_NO":999,"REV_AT_EPOCH":5153,"BSTAR":0.00030989803,"MEAN_MOTION_DOT":5.449e-5,"MEAN_MOTION_DDOT":0},{"OBJECT_NAME":"LEMUR-2-NEUROSPICY","OBJECT_ID":"2025-061E","EPOCH":"2026-03-02T21:16:59.324736","MEAN_MOTION":15.13273399,"ECCENTRICITY":0.00153189,"INCLINATION":97.5524,"RA_OF_ASC_NODE":38.3843,"ARG_OF_PERICENTER":266.7206,"MEAN_ANOMALY":93.2273,"EPHEMERIS_TYPE":0,"CLASSIFICATION_TYPE":"U","NORAD_CAT_ID":63355,"ELEMENT_SET_NO":999,"REV_AT_EPOCH":5153,"BSTAR":0.00044523107,"MEAN_MOTION_DOT":7.878e-5,"MEAN_MOTION_DDOT":0},{"OBJECT_NAME":"LEMUR-2-TILLINFINITY","OBJECT_ID":"2025-061F","EPOCH":"2026-03-02T21:31:32.109024","MEAN_MOTION":15.13850056,"ECCENTRICITY":0.00165477,"INCLINATION":97.5512,"RA_OF_ASC_NODE":38.6107,"ARG_OF_PERICENTER":253.594,"MEAN_ANOMALY":106.3472,"EPHEMERIS_TYPE":0,"CLASSIFICATION_TYPE":"U","NORAD_CAT_ID":63356,"ELEMENT_SET_NO":999,"REV_AT_EPOCH":5155,"BSTAR":0.00033627291,"MEAN_MOTION_DOT":6.033e-5,"MEAN_MOTION_DDOT":0}]
