LEMUR-2-ARIANNA         
1 62699U 25009CU  26061.80688451  .00009372  00000+0  74349-3 0  9993
2 62699  97.7031 144.1734 0004359 159.9777 200.1619 15.00727041 61598
LEMUR-2-ALISIA          
1 62706U 25009DB  26061.73832303  .00009717  00000+0  76520-3 0  9997
2 62706  97.7075 144.7546 0006256 174.9664 185.1624 15.00991747 84186
LEMUR-2-ROUNDTRIPPER    
1 62711U 25009DG  26061.76633823  .00010700  00000+0  82226-3 0  9996
2 62711  97.7310 144.7342 0004572 145.0716 215.0809 15.01906856 61646
LEMUR-2-MYNAMEISJEFF    
1 62712U 25009DH  26061.76485381  .00010591  00000+0  81422-3 0  9996
2 62712  97.7360 145.0505 0003691 173.5484 186.5789 15.01894881 61649
LEMUR-2-LEIA-PHILIP     
1 63246U 25052AN  26061.92911195  .00007418  00000+0  65707-3 0  9994
2 63246  97.6978 315.6358 0002559 196.8612 163.2525 14.96530618 52772
LEMUR-2-LIA-MARTIN      
1 63248U 25052AQ  26061.68385168  .00006358  00000+0  56163-3 0  9992
2 63248  97.7024 315.7505 0002899 161.1851 198.9478 14.96697324 52746
LEMUR-2-DELOITTE-1      
1 63259U 25052BB  26061.65260450  .00006499  00000+0  57390-3 0  9996
2 63259  97.7056 316.0309 0003219  93.0622 267.0968 14.96700379 52753
LEMUR-2-EMERSONROSE     
1 63261U 25052BD  26061.93268491  .00006994  00000+0  59500-3 0  9998
2 63261  97.7048 316.6527 0003417  66.2901 293.8680 14.98125988 52822
LEMUR-2-MARACHE-FRAN    
1 63262U 25052BE  26061.69904490  .00007792  00000+0  65141-3 0  9993
2 63262  97.7008 316.6107 0002401  41.8962 318.2444 14.98767634 52809
LEMUR-2-THEFALCONER     
1 63264U 25052BG  26061.66312239  .00005494  00000+0  48954-3 0  9996
2 63264  97.7005 315.7768 0002943  38.9181 321.2252 14.96412267 52754
LEMUR-2-UNTITLED-SC     
1 63351U 25061A   26061.88011475  .00006564  00000+0  37835-3 0  9990
2 63351  97.5542  38.1436 0017284 272.3566  87.5686 15.12605287 51519
LEMUR-2-ESPERANZA       
1 63352U 25061B   26061.92939569  .00005730  00000+0  33014-3 0  9998
2 63352  97.5550  38.2622 0016739 271.5504  88.3810 15.12684435 51525
LEMUR-2-KREMPEL-BRO2    
1 63353U 25061C   26061.92016868  .00005581  00000+0  31796-3 0  9996
2 63353  97.5597  38.6514 0017624 263.4858  96.4366 15.13087400 51534
LEMUR-2-THERMORAPTOR    
1 63354U 25061D   26061.90713873  .00005449  00000+0  30990-3 0  9993
2 63354  97.5601  38.6953 0017398 262.3445  97.5810 15.13163338 51537
LEMUR-2-NEUROSPICY      
1 63355U 25061E   26061.88679774  .00007878  00000+0  44523-3 0  9997
2 63355  97.5524  38.3843 0015318 266.7206  93.2273 15.13273399 51535
LEMUR-2-TILLINFINITY    
1 63356U 25061F   26061.89689941  .00006033  00000+0  33627-3 0  9991
2 63356  97.5512  38.6107 0016547 253.5940 106.3472 15.13850056 51553
